{"type": "FeatureCollection", "features": [{"type": "Feature", "properties": {"norad_id": 28380, "name": "COSMOS 2407", "group": "musson", "lat": -14.979932206442268, "lon": -140.43339462791596, "alt_km": 987.28956943716, "timestamp": "2025-12-01T03:58:49.222852+00:00", "meta": {"OBJECT_NAME": "COSMOS 2407", "OBJECT_ID": "2004-028A", "EPOCH": "2025-11-30T17:52:27.290784", "MEAN_MOTION": 13.76311502, "ECCENTRICITY": 0.0040563, "INCLINATION": 82.9615, "RA_OF_ASC_NODE": 221.7727, "ARG_OF_PERICENTER": 87.3473, "MEAN_ANOMALY": 332.9353, "EPHEMERIS_TYPE": 0, "CLASSIFICATION_TYPE": "U", "NORAD_CAT_ID": 28380, "ELEMENT_SET_NO": 999, "REV_AT_EPOCH": 7258, "BSTAR": 5.3738e-05, "MEAN_MOTION_DOT": 6.8e-07, "MEAN_MOTION_DDOT": 0, "GROUP": "musson"}, "tle": {"line1": "1 28380U 04028A   25334.74476031  .00000068  00000+0  53738-4 0  9997", "line2": "2 28380  82.9615 221.7727 0040563  87.3473 332.9353 13.76311502 72581"}}, "geometry": {"type": "Point", "coordinates": [-140.43339462791596, -14.979932206442268]}}, {"type": "Feature", "properties": {"norad_id": 28521, "name": "COSMOS 2414", "group": "musson", "lat": 52.999140191086276, "lon": 3.959549535891573, "alt_km": 910.5372478918416, "timestamp": "2025-12-01T03:58:49.222876+00:00", "meta": {"OBJECT_NAME": "COSMOS 2414", "OBJECT_ID": "2005-002A", "EPOCH": "2025-11-30T15:15:38.723040", "MEAN_MOTION": 13.87900475, "ECCENTRICITY": 0.0040134, "INCLINATION": 82.95, "RA_OF_ASC_NODE": 193.8118, "ARG_OF_PERICENTER": 173.7815, "MEAN_ANOMALY": 186.3856, "EPHEMERIS_TYPE": 0, "CLASSIFICATION_TYPE": "U", "NORAD_CAT_ID": 28521, "ELEMENT_SET_NO": 999, "REV_AT_EPOCH": 5627, "BSTAR": 6.4477e-05, "MEAN_MOTION_DOT": 9.3e-07, "MEAN_MOTION_DDOT": 0, "GROUP": "musson"}, "tle": {"line1": "1 28521U 05002A   25334.63586485  .00000093  00000+0  64477-4 0  9990", "line2": "2 28521  82.9500 193.8118 0040134 173.7815 186.3856 13.87900475 56270"}}, "geometry": {"type": "Point", "coordinates": [3.959549535891573, 52.999140191086276]}}, {"type": "Feature", "properties": {"norad_id": 36519, "name": "COSMOS 2463", "group": "musson", "lat": 6.599466790160845, "lon": -145.601697985075, "alt_km": 1017.6579107642747, "timestamp": "2025-12-01T03:58:49.222916+00:00", "meta": {"OBJECT_NAME": "COSMOS 2463", "OBJECT_ID": "2010-017A", "EPOCH": "2025-11-30T15:25:00.546816", "MEAN_MOTION": 13.71647453, "ECCENTRICITY": 0.0035221, "INCLINATION": 82.9624, "RA_OF_ASC_NODE": 35.6016, "ARG_OF_PERICENTER": 322.6983, "MEAN_ANOMALY": 147.2975, "EPHEMERIS_TYPE": 0, "CLASSIFICATION_TYPE": "U", "NORAD_CAT_ID": 36519, "ELEMENT_SET_NO": 999, "REV_AT_EPOCH": 78071, "BSTAR": 4.8675e-05, "MEAN_MOTION_DOT": 5.9e-07, "MEAN_MOTION_DDOT": 0, "GROUP": "musson"}, "tle": {"line1": "1 36519U 10017A   25334.64236744  .00000059  00000+0  48675-4 0  9993", "line2": "2 36519  82.9624  35.6016 0035221 322.6983 147.2975 13.71647453780713"}}, "geometry": {"type": "Point", "coordinates": [-145.601697985075, 6.599466790160845]}}, {"type": "Feature", "properties": {"norad_id": 25590, "name": "COSMOS 2361", "group": "musson", "lat": 46.13787566121029, "lon": 0.062374658473733705, "alt_km": 990.6058229560749, "timestamp": "2025-12-01T03:58:49.224303+00:00", "meta": {"OBJECT_NAME": "COSMOS 2361", "OBJECT_ID": "1998-076A", "EPOCH": "2025-11-30T10:50:35.931264", "MEAN_MOTION": 13.73215445, "ECCENTRICITY": 0.00302278, "INCLINATION": 82.9344, "RA_OF_ASC_NODE": 353.1756, "ARG_OF_PERICENTER": 301.2368, "MEAN_ANOMALY": 177.1639, "EPHEMERIS_TYPE": 0, "CLASSIFICATION_TYPE": "U", "NORAD_CAT_ID": 25590, "ELEMENT_SET_NO": 999, "REV_AT_EPOCH": 34942, "BSTAR": 6.4219038e-05, "MEAN_MOTION_DOT": 7.4e-07, "MEAN_MOTION_DDOT": 0, "GROUP": "musson"}, "tle": {"line1": "1 25590U 98076A   25334.45180476  .00000074  00000+0  64219-4 0  9999", "line2": "2 25590  82.9344 353.1756 0030227 301.2368 177.1639 13.73215445349421"}}, "geometry": {"type": "Point", "coordinates": [0.062374658473733705, 46.13787566121029]}}, {"type": "Feature", "properties": {"norad_id": 26818, "name": "COSMOS 2378", "group": "musson", "lat": 78.03710443425668, "lon": 44.17115412331677, "alt_km": 999.1208167174327, "timestamp": "2025-12-01T03:58:49.224322+00:00", "meta": {"OBJECT_NAME": "COSMOS 2378", "OBJECT_ID": "2001-023A", "EPOCH": "2025-11-30T17:46:33.043008", "MEAN_MOTION": 13.74140362, "ECCENTRICITY": 0.0031813, "INCLINATION": 82.9282, "RA_OF_ASC_NODE": 8.6223, "ARG_OF_PERICENTER": 239.1708, "MEAN_ANOMALY": 259.1381, "EPHEMERIS_TYPE": 0, "CLASSIFICATION_TYPE": "U", "NORAD_CAT_ID": 26818, "ELEMENT_SET_NO": 999, "REV_AT_EPOCH": 22758, "BSTAR": 4.9626e-05, "MEAN_MOTION_DOT": 6.2e-07, "MEAN_MOTION_DDOT": 0, "GROUP": "musson"}, "tle": {"line1": "1 26818U 01023A   25334.74066022  .00000062  00000+0  49626-4 0  9993", "line2": "2 26818  82.9282   8.6223 0031813 239.1708 259.1381 13.74140362227589"}}, "geometry": {"type": "Point", "coordinates": [44.17115412331677, 78.03710443425668]}}, {"type": "Feature", "properties": {"norad_id": 27436, "name": "COSMOS 2389", "group": "musson", "lat": -64.65147123844773, "lon": 150.69761189736596, "alt_km": 1019.7819447556185, "timestamp": "2025-12-01T03:58:49.224335+00:00", "meta": {"OBJECT_NAME": "COSMOS 2389", "OBJECT_ID": "2002-026A", "EPOCH": "2025-11-30T17:08:56.662080", "MEAN_MOTION": 13.75152708, "ECCENTRICITY": 0.0047797, "INCLINATION": 82.9493, "RA_OF_ASC_NODE": 315.888, "ARG_OF_PERICENTER": 93.3829, "MEAN_ANOMALY": 78.9722, "EPHEMERIS_TYPE": 0, "CLASSIFICATION_TYPE": "U", "NORAD_CAT_ID": 27436, "ELEMENT_SET_NO": 999, "REV_AT_EPOCH": 17983, "BSTAR": 6.6076e-05, "MEAN_MOTION_DOT": 7.9e-07, "MEAN_MOTION_DDOT": 0, "GROUP": "musson"}, "tle": {"line1": "1 27436U 02026A   25334.71454470  .00000079  00000+0  66076-4 0  9995", "line2": "2 27436  82.9493 315.8880 0047797  93.3829  78.9722 13.75152708179832"}}, "geometry": {"type": "Point", "coordinates": [150.69761189736596, -64.65147123844773]}}, {"type": "Feature", "properties": {"norad_id": 27818, "name": "COSMOS 2398", "group": "musson", "lat": -46.384740009166, "lon": -86.23753188265499, "alt_km": 1021.0982783628551, "timestamp": "2025-12-01T03:58:49.224347+00:00", "meta": {"OBJECT_NAME": "COSMOS 2398", "OBJECT_ID": "2003-023A", "EPOCH": "2025-11-30T19:38:02.721120", "MEAN_MOTION": 13.72383975, "ECCENTRICITY": 0.00321, "INCLINATION": 82.9472, "RA_OF_ASC_NODE": 281.4842, "ARG_OF_PERICENTER": 143.8456, "MEAN_ANOMALY": 252.1584, "EPHEMERIS_TYPE": 0, "CLASSIFICATION_TYPE": "U", "NORAD_CAT_ID": 27818, "ELEMENT_SET_NO": 999, "REV_AT_EPOCH": 12653, "BSTAR": 3.8139e-05, "MEAN_MOTION_DOT": 5e-07, "MEAN_MOTION_DDOT": 0, "GROUP": "musson"}, "tle": {"line1": "1 27818U 03023A   25334.81808705  .00000050  00000+0  38139-4 0  9990", "line2": "2 27818  82.9472 281.4842 0032100 143.8456 252.1584 13.72383975126538"}}, "geometry": {"type": "Point", "coordinates": [-86.23753188265499, -46.384740009166]}}, {"type": "Feature", "properties": {"norad_id": 32052, "name": "COSMOS 2429", "group": "musson", "lat": 70.13275194805865, "lon": 11.776517860032955, "alt_km": 945.1677450334882, "timestamp": "2025-12-01T03:58:49.224359+00:00", "meta": {"OBJECT_NAME": "COSMOS 2429", "OBJECT_ID": "2007-038A", "EPOCH": "2025-11-30T18:54:19.602432", "MEAN_MOTION": 13.75147628, "ECCENTRICITY": 0.00397, "INCLINATION": 82.9807, "RA_OF_ASC_NODE": 352.1204, "ARG_OF_PERICENTER": 70.3461, "MEAN_ANOMALY": 290.1973, "EPHEMERIS_TYPE": 0, "CLASSIFICATION_TYPE": "U", "NORAD_CAT_ID": 32052, "ELEMENT_SET_NO": 999, "REV_AT_EPOCH": 91438, "BSTAR": 5.8718e-05, "MEAN_MOTION_DOT": 7.2e-07, "MEAN_MOTION_DDOT": 0, "GROUP": "musson"}, "tle": {"line1": "1 32052U 07038A   25334.78772688  .00000072  00000+0  58718-4 0  9991", "line2": "2 32052  82.9807 352.1204 0039700  70.3461 290.1973 13.75147628914385"}}, "geometry": {"type": "Point", "coordinates": [11.776517860032955, 70.13275194805865]}}, {"type": "Feature", "properties": {"norad_id": 35635, "name": "COSMOS 2454", "group": "musson", "lat": 82.5055913429336, "lon": -72.61083316555131, "alt_km": 906.8050255324897, "timestamp": "2025-12-01T03:58:49.224371+00:00", "meta": {"OBJECT_NAME": "COSMOS 2454", "OBJECT_ID": "2009-039A", "EPOCH": "2025-11-30T20:40:45.321888", "MEAN_MOTION": 13.89926255, "ECCENTRICITY": 0.0020467, "INCLINATION": 82.9559, "RA_OF_ASC_NODE": 177.6489, "ARG_OF_PERICENTER": 105.4747, "MEAN_ANOMALY": 265.7981, "EPHEMERIS_TYPE": 0, "CLASSIFICATION_TYPE": "U", "NORAD_CAT_ID": 35635, "ELEMENT_SET_NO": 999, "REV_AT_EPOCH": 82985, "BSTAR": 6.0533e-05, "MEAN_MOTION_DOT": 9.1e-07, "MEAN_MOTION_DDOT": 0, "GROUP": "musson"}, "tle": {"line1": "1 35635U 09039A   25334.86163567  .00000091  00000+0  60533-4 0  9992", "line2": "2 35635  82.9559 177.6489 0020467 105.4747 265.7981 13.89926255829851"}}, "geometry": {"type": "Point", "coordinates": [-72.61083316555131, 82.5055913429336]}}]}